[Satellite]
VERSION=1.1
NAME=SYRACUSE 3A
NICKNAME=SYRACUSE 3A
TLE1=1 28885U 05041B   17186.07684877  .00000124  00000-0  00000-0 0  9998
TLE2=2 28885   0.0443  67.3316 0002628  44.2531 246.2769  1.00273641 42957
